#aV2013  5 30  0  0  0.00000000     288 DD+AD WGS84 FIT  NGA
## 1742 345600.00000000   300.00000000 56442 0.0000000000000
+   30     1  2  3  4  5  6  7  8  9 10 11 12 13 14 15 16 17
+         18 19 20 21 22 23 24 25 26 28 29 31 32  0  0  0  0
+          0  0  0  0  0  0  0  0  0  0  0  0  0  0  0  0  0
+          0  0  0  0  0  0  0  0  0  0  0  0  0  0  0  0  0
+          0  0  0  0  0  0  0  0  0  0  0  0  0  0  0  0  0
++         2  2  2  2  2  2  2  2  2  2  2  2  2  2  2  2  2
++         2  2  2  2  2  2  2  2  2  2  2  2  2  2  2  0  0
++         0  0  0  0  0  0  0  0  0  0  0  0  0  0  0  0  0
++         0  0  0  0  0  0  0  0  0  0  0  0  0  0  0  0  0
++         0  0  0  0  0  0  0  0  0  0  0  0  0  0  0  0  0
%c cc cc ccc ccc cccc cccc cccc cccc ccccc ccccc ccccc ccccc
%c cc cc ccc ccc cccc cccc cccc cccc ccccc ccccc ccccc ccccc
%f  0.0000000  0.000000000  0.00000000000  0.000000000000000
%f  0.0000000  0.000000000  0.00000000000  0.000000000000000
%i    0    0    0    0      0      0      0      0         0
%i    0    0    0    0      0      0      0      0         0
/*      NGA, ST. LOUIS,MO.                                  
/*   EPHEMERIS COMPUTED FROM  1 DAYS OF DATA
/*   EPOCHA SMOOTHER  
/* CCCCCCCCCCCCCCCCCCCCCCCCCCCCCCCCCCCCCCCCCCCCCCCCCCCCCCCCC
*  2013  5 30  0 10  0.00000000                                                 
P  1  13531.036034 -11943.601409  19441.206606     31.571260                    
V  1   1500.615230  24740.737760  14229.738528      0.042838                    
P  2 -13519.395335 -14262.914852 -17879.669285    434.553200                    
V  2   1037.104089 -23057.788510  16895.763383      0.018138                    
P  3  25118.209291   8814.533207   1252.261080    213.443101                    
V  3    781.409415   4031.990308 -30975.611464      0.050525                    
P  4  -8379.570943 -22645.037836 -11029.814252    231.577110                    
V  4   3021.954343 -13771.917100  26936.854150      0.103378                    
P  5 -20160.211120  -2417.986511 -17220.458948   -395.847190                    
V  5  17822.377544 -12685.205251 -18971.777905     -0.008973                    
P  6  22907.860347  13501.242377  -2949.244446    210.608762                    
V  6  -4780.716965   1116.570377 -30783.911502     -0.166108                    
P  7   6302.755072 -24045.171880  -8876.482334    219.334396                    
V  7   2270.276589  11429.895587 -29505.652512      0.042316                    
P  8   1414.796700 -26124.192872   1994.050270      6.435857                    
V  8   2360.249079  -2202.618420 -32831.662563      0.002446                    
P  9  -7767.358530 -22410.149622  11296.013234    244.267262                    
V  9   1836.739210 -15228.349772 -27684.153197      0.026287                    
P 10  -5501.552699 -14857.003700 -21580.643505    -81.629642                    
V 10  23588.564324 -12768.957952   3230.341729     -0.013836                    
P 11  15941.174306  -4401.650107  20348.015567   -386.657296                    
V 11   8160.793376  25925.198146   -497.311147     -0.036800                    
P 12 -24035.896717  10422.106087   3567.147282    136.499217                    
V 12   2966.162277  -4153.441006  31982.904963      0.020769                    
P 13   8854.110483 -11890.132836 -22180.493857    114.505012                    
V 13  22683.172653  15997.799629    354.705385     -0.036425                    
P 14  10504.943569  19339.560664  15176.632011    220.692750                    
V 14 -16558.322052  -9100.054239  23218.993361     -0.002046                    
P 15 -22693.358875   -479.142029  13970.491135   -121.150530                    
V 15 -14537.839962 -10450.716360 -23666.281843     -0.015771                    
P 16  19565.358137   3158.390643 -17872.738855   -251.772532                    
V 16 -19440.625474  11294.823504 -18978.856388      0.002853                    
P 17 -10512.571344 -19136.079749  15504.062033     14.381010                    
V 17  17194.759240   8685.484702  22471.890126     -0.040878                    
P 18  -9945.056927  19301.926200  15466.088358    256.092690                    
V 18 -17928.705747   7310.159374 -21573.285904      0.018008                    
P 19  23222.659074   6262.682300  11636.750322   -376.918734                    
V 19  10958.348774  10097.418517 -26671.374998     -0.030527                    
P 20  21981.412042 -14840.140584   -310.753808    100.707262                    
V 20   2321.924258   3150.255097  31054.980611      0.020710                    
P 21  -3129.762195  25592.981489  -4506.816578   -300.282376                    
V 21  -4253.802193  -6502.779737 -30703.993140     -0.021266                    
P 22   1814.530227  16897.509875  20580.094273    169.667485                    
V 22 -22870.366990  12127.235023  -8164.261783      0.015976                    
P 23  17493.335963  -5554.359558 -19267.361604     81.083850                    
V 23  20581.229001  13344.487161  14391.515639     -0.036056                    
P 24 -14454.601750   7994.894542  20777.468849     -7.246059                    
V 24  -1305.979337 -26410.409496   9288.121954     -0.007062                    
P 25 -18788.683537  17156.230333  -7498.530333    103.345409                    
V 25  -9330.401467   2828.033680  30159.735499      0.044080                    
P 26 -22743.631159 -13670.705132   2634.067242     32.668906                    
V 26  -2221.222276  -3980.882950 -31715.997914      0.156479                    
P 28   3042.580689 -17041.827940  20673.552307    262.868034                    
V 28  22540.331154 -10715.563988 -12679.097492      0.033338                    
P 29  -9455.295333  11818.103553 -21771.983113    440.190331                    
V 29 -23358.073880 -14991.131230   2047.493500      0.035155                    
P 31   7437.071713  22442.725117 -11642.503329    316.051980                    
V 31  -2368.203763  15081.621427  27437.893727      0.012427                    
P 32  24590.678370  -6002.233303   7228.056064   -557.953074                    
V 32  -6795.352659   7014.702648  29992.416588     -0.011919                    
EOF
